{
  "type": "FeatureCollection",
  "features": [
    {
      "type": "Feature",
      "properties": {
        "norad_id": 38867,
        "name": "INTELSAT 23 (IS-23)",
        "group": "intelsat",
        "lat": 0.008108741396705345,
        "lon": -145.9642028639268,
        "alt_km": 35786.03433989438,
        "timestamp": "2025-12-27T11:23:19.545479+00:00",
        "meta_object_name": "INTELSAT 23 (IS-23)",
        "meta_object_id": "2012-057A",
        "meta_epoch": "2025-12-27T02:28:38.678016",
        "meta_mean_motion": 1.0027277,
        "meta_eccentricity": 6.8e-05,
        "meta_inclination": 0.0208,
        "meta_ra_of_asc_node": 81.4413,
        "meta_arg_of_pericenter": 226.5034,
        "meta_mean_anomaly": 132.0687,
        "meta_ephemeris_type": 0,
        "meta_classification_type": "U",
        "meta_norad_cat_id": 38867,
        "meta_element_set_no": 999,
        "meta_rev_at_epoch": 4822,
        "meta_bstar": 0,
        "meta_mean_motion_dot": -2.62e-06,
        "meta_mean_motion_ddot": 0,
        "tle_line1": "1 38867U 12057A   25361.10322544 -.00000262  00000+0  00000+0 0  9994",
        "tle_line2": "2 38867   0.0208  81.4413 0000680 226.5034 132.0687  1.00272770 48220"
      },
      "geometry": {
        "type": "Point",
        "coordinates": [
          -145.9642028639268,
          0.008108741396705345
        ]
      }
    },
    {
      "type": "Feature",
      "properties": {
        "norad_id": 39360,
        "name": "FM-6",
        "group": "intelsat",
        "lat": 0.029685147679514322,
        "lon": 150.81239214632,
        "alt_km": 35775.6955574166,
        "timestamp": "2025-12-27T11:23:19.545491+00:00",
        "meta_object_name": "FM-6",
        "meta_object_id": "2013-058A",
        "meta_epoch": "2025-12-25T23:15:38.712384",
        "meta_mean_motion": 1.00267622,
        "meta_eccentricity": 0.00031338,
        "meta_inclination": 0.0194,
        "meta_ra_of_asc_node": 74.6696,
        "meta_arg_of_pericenter": 105.3027,
        "meta_mean_anomaly": 147.4825,
        "meta_ephemeris_type": 0,
        "meta_classification_type": "U",
        "meta_norad_cat_id": 39360,
        "meta_element_set_no": 999,
        "meta_rev_at_epoch": 4433,
        "meta_bstar": 0,
        "meta_mean_motion_dot": 5e-08,
        "meta_mean_motion_ddot": 0,
        "tle_line1": "1 39360U 13058A   25359.96919806  .00000005  00000+0  00000+0 0  9993",
        "tle_line2": "2 39360   0.0194  74.6696 0003133 105.3027 147.4825  1.00267622 44334"
      },
      "geometry": {
        "type": "Point",
        "coordinates": [
          150.81239214632,
          0.029685147679514322
        ]
      }
    },
    {
      "type": "Feature",
      "properties": {
        "norad_id": 40271,
        "name": "INTELSAT 30 (IS-30)",
        "group": "intelsat",
        "lat": 0.021568654382143747,
        "lon": 171.987269388469,
        "alt_km": 35785.78573282711,
        "timestamp": "2025-12-27T11:23:19.545503+00:00",
        "meta_object_name": "INTELSAT 30 (IS-30)",
        "meta_object_id": "2014-062A",
        "meta_epoch": "2025-12-26T05:38:38.555808",
        "meta_mean_motion": 1.00271488,
        "meta_eccentricity": 0.0001425,
        "meta_inclination": 0.0176,
        "meta_ra_of_asc_node": 41.6763,
        "meta_arg_of_pericenter": 44.2324,
        "meta_mean_anomaly": 358.6785,
        "meta_ephemeris_type": 0,
        "meta_classification_type": "U",
        "meta_norad_cat_id": 40271,
        "meta_element_set_no": 999,
        "meta_rev_at_epoch": 506,
        "meta_bstar": 0,
        "meta_mean_motion_dot": -1.29e-06,
        "meta_mean_motion_ddot": 0,
        "tle_line1": "1 40271U 14062A   25360.23516847 -.00000129  00000+0  00000+0 0  9990",
        "tle_line2": "2 40271   0.0176  41.6763 0001425  44.2324 358.6785  1.00271488  5062"
      },
      "geometry": {
        "type": "Point",
        "coordinates": [
          171.987269388469,
          0.021568654382143747
        ]
      }
    },
    {
      "type": "Feature",
      "properties": {
        "norad_id": 40333,
        "name": "DIRECTV 14",
        "group": "intelsat",
        "lat": 0.0012011189601479494,
        "lon": 167.8996852641728,
        "alt_km": 35783.266686556904,
        "timestamp": "2025-12-27T11:23:19.545514+00:00",
        "meta_object_name": "DIRECTV 14",
        "meta_object_id": "2014-078B",
        "meta_epoch": "2025-12-24T12:37:43.773312",
        "meta_mean_motion": 1.00279829,
        "meta_eccentricity": 3.885e-05,
        "meta_inclination": 0.0184,
        "meta_ra_of_asc_node": 340.4706,
        "meta_arg_of_pericenter": 254.7884,
        "meta_mean_anomaly": 308.2619,
        "meta_ephemeris_type": 0,
        "meta_classification_type": "U",
        "meta_norad_cat_id": 40333,
        "meta_element_set_no": 999,
        "meta_rev_at_epoch": 4029,
        "meta_bstar": 0,
        "meta_mean_motion_dot": -1.06e-06,
        "meta_mean_motion_ddot": 0,
        "tle_line1": "1 40333U 14078B   25358.52620108 -.00000106  00000+0  00000+0 0  9996",
        "tle_line2": "2 40333   0.0184 340.4706 0000388 254.7884 308.2619  1.00279829 40291"
      },
      "geometry": {
        "type": "Point",
        "coordinates": [
          167.8996852641728,
          0.0012011189601479494
        ]
      }
    },
    {
      "type": "Feature",
      "properties": {
        "norad_id": 40663,
        "name": "DIRECTV 15",
        "group": "intelsat",
        "lat": 0.02253448681503274,
        "lon": 164.12553823409198,
        "alt_km": 35785.69174200901,
        "timestamp": "2025-12-27T11:23:19.545526+00:00",
        "meta_object_name": "DIRECTV 15",
        "meta_object_id": "2015-026A",
        "meta_epoch": "2025-12-26T07:34:38.576064",
        "meta_mean_motion": 1.00269733,
        "meta_eccentricity": 3.61e-05,
        "meta_inclination": 0.018,
        "meta_ra_of_asc_node": 29.1854,
        "meta_arg_of_pericenter": 84.7041,
        "meta_mean_anomaly": 351.9356,
        "meta_ephemeris_type": 0,
        "meta_classification_type": "U",
        "meta_norad_cat_id": 40663,
        "meta_element_set_no": 999,
        "meta_rev_at_epoch": 3873,
        "meta_bstar": 0,
        "meta_mean_motion_dot": -8e-07,
        "meta_mean_motion_ddot": 0,
        "tle_line1": "1 40663U 15026A   25360.31572426 -.00000080  00000+0  00000+0 0  9996",
        "tle_line2": "2 40663   0.0180  29.1854 0000361  84.7041 351.9356  1.00269733 38737"
      },
      "geometry": {
        "type": "Point",
        "coordinates": [
          164.12553823409198,
          0.02253448681503274
        ]
      }
    },
    {
      "type": "Feature",
      "properties": {
        "norad_id": 40664,
        "name": "SKY MEXICO-1",
        "group": "intelsat",
        "lat": 0.006263715449728569,
        "lon": -171.7610206853067,
        "alt_km": 35788.053797663284,
        "timestamp": "2025-12-27T11:23:19.545537+00:00",
        "meta_object_name": "SKY MEXICO-1",
        "meta_object_id": "2015-026B",
        "meta_epoch": "2025-12-27T04:54:08.457120",
        "meta_mean_motion": 1.00271927,
        "meta_eccentricity": 0.0002545,
        "meta_inclination": 0.0124,
        "meta_ra_of_asc_node": 28.4396,
        "meta_arg_of_pericenter": 260.5525,
        "meta_mean_anomaly": 161.7203,
        "meta_ephemeris_type": 0,
        "meta_classification_type": "U",
        "meta_norad_cat_id": 40664,
        "meta_element_set_no": 999,
        "meta_rev_at_epoch": 3873,
        "meta_bstar": 0,
        "meta_mean_motion_dot": -2.12e-06,
        "meta_mean_motion_ddot": 0,
        "tle_line1": "1 40664U 15026B   25361.20426455 -.00000212  00000+0  00000+0 0  9993",
        "tle_line2": "2 40664   0.0124  28.4396 0002545 260.5525 161.7203  1.00271927 38732"
      },
      "geometry": {
        "type": "Point",
        "coordinates": [
          -171.7610206853067,
          0.006263715449728569
        ]
      }
    },
    {
      "type": "Feature",
      "properties": {
        "norad_id": 40874,
        "name": "INTELSAT 34 (IS-34)",
        "group": "intelsat",
        "lat": -0.020038641327724323,
        "lon": -148.48598441910903,
        "alt_km": 35785.451129462315,
        "timestamp": "2025-12-27T11:23:19.545549+00:00",
        "meta_object_name": "INTELSAT 34 (IS-34)",
        "meta_object_id": "2015-039A",
        "meta_epoch": "2025-12-26T01:50:17.564352",
        "meta_mean_motion": 1.00269247,
        "meta_eccentricity": 5.15e-05,
        "meta_inclination": 0.0147,
        "meta_ra_of_asc_node": 340.5004,
        "meta_arg_of_pericenter": 185.0401,
        "meta_mean_anomaly": 261.3543,
        "meta_ephemeris_type": 0,
        "meta_classification_type": "U",
        "meta_norad_cat_id": 40874,
        "meta_element_set_no": 999,
        "meta_rev_at_epoch": 3788,
        "meta_bstar": 0,
        "meta_mean_motion_dot": -2.64e-06,
        "meta_mean_motion_ddot": 0,
        "tle_line1": "1 40874U 15039A   25360.07659218 -.00000264  00000+0  00000+0 0  9996",
        "tle_line2": "2 40874   0.0147 340.5004 0000515 185.0401 261.3543  1.00269247 37884"
      },
      "geometry": {
        "type": "Point",
        "coordinates": [
          -148.48598441910903,
          -0.020038641327724323
        ]
      }
    }
  ]
}